NORAD_CAT_ID,OBJECT_NAME,OBJECT_TYPE,EPOCH,MEAN_MOTION,ECCENTRICITY,INCLINATION,RA_OF_ASC_NODE,ARG_OF_PERICENTER,MEAN_ANOMALY,BSTAR,MEAN_MOTION_DOT,MEAN_MOTION_DDOT,TLE_LINE0,TLE_LINE1,TLE_LINE2,SEMIMAJOR_AXIS,PERIOD,APOGEE,PERIGEE,DECAYED
54185.0,STARLINK-5235,PAYLOAD,2023-02-18 11:41:31,15.08842306,0.0001322,53.2172,330.1948,87.9646,272.1497,0.0010269,0.00016094,0.0,0 STARLINK-5235,1 54185U 22141AE  23049.48717146  .00016094  00000-0  10269-2 0  9999,2 54185  53.2172 330.1948 0001322  87.9646 272.1497 15.08842306 17738,6917.873,95.437,540.653,538.824,0.0
54185.0,STARLINK-5235,PAYLOAD,2023-02-18 22:49:13,15.08868626,0.000141,53.2178,328.1136,89.3948,270.7206,0.0014846,0.00023437,0.0,0 STARLINK-5235,1 54185U 22141AE  23049.95084548  .00023437  00000-0  14846-2 0  9998,2 54185  53.2178 328.1136 0001410  89.3948 270.7206 15.08868626 17802,6917.793,95.436,540.633,538.682,0.0
54185.0,STARLINK-5235,PAYLOAD,2023-02-19 00:24:36,15.08877188,0.0001439,53.2176,327.8164,89.278,270.8377,0.0017486,0.00027679,0.0,0 STARLINK-5235,1 54185U 22141AE  23050.01708366  .00027679  00000-0  17486-2 0  9993,2 54185  53.2176 327.8164 0001439  89.2780 270.8377 15.08877188 17589,6917.767,95.435,540.627,538.636,0.0
54185.0,STARLINK-5235,PAYLOAD,2023-02-19 17:53:49,15.08872634,0.000154,53.2173,324.545,97.4419,262.6748,0.0013881,0.00021892,0.0,0 STARLINK-5235,1 54185U 22141AE  23050.74571630  .00021892  00000-0  13881-2 0  9991,2 54185  53.2173 324.5450 0001540  97.4419 262.6748 15.08872634 17921,6917.781,95.435,540.711,538.58,0.0
54185.0,STARLINK-5235,PAYLOAD,2023-02-20 01:50:45,15.0885601,0.0001069,53.2177,323.0581,88.419,271.6925,0.0016469,0.00026031,0.0,0 STARLINK-5235,1 54185U 22141AE  23051.07691503  .00026031  00000-0  16469-2 0  9995,2 54185  53.2177 323.0581 0001069  88.4190 271.6925 15.08856010 17978,6917.831,95.437,540.436,538.957,0.0
54185.0,STARLINK-5235,PAYLOAD,2023-02-20 11:23:04,15.08857268,0.0001255,53.217,321.2733,93.993,266.1206,0.001306,0.00020568,0.0,0 STARLINK-5235,1 54185U 22141AE  23051.47435473  .00020568  00000-0  13060-2 0  9994,2 54185  53.2170 321.2733 0001255  93.9930 266.1206 15.08857268 18035,6917.828,95.436,540.561,538.824,0.0
54185.0,STARLINK-5235,PAYLOAD,2023-02-20 17:44:36,15.08850865,0.0001361,53.2173,320.0841,100.7272,259.3873,0.00074403,0.00011577,0.0,0 STARLINK-5235,1 54185U 22141AE  23051.73931483  .00011577  00000-0  74403-3 0  9994,2 54185  53.2173 320.0841 0001361 100.7272 259.3873 15.08850865 18073,6917.847,95.437,540.654,538.771,0.0
54185.0,STARLINK-5235,PAYLOAD,2023-02-21 11:13:51,15.08842717,0.000114,53.2169,316.8116,94.1024,266.0099,0.00016583,2.353e-05,0.0,0 STARLINK-5235,1 54185U 22141AE  23052.46795231  .00002353  00000-0  16583-3 0  9991,2 54185  53.2169 316.8116 0001140  94.1024 266.0099 15.08842717 18186,6917.872,95.437,540.526,538.948,0.0
54185.0,STARLINK-5235,PAYLOAD,2023-02-21 20:46:09,15.08848123,0.0001275,53.217,315.0289,89.8703,270.2435,0.0002219,3.246e-05,0.0,0 STARLINK-5235,1 54185U 22141AE  23052.86539191  .00003246  00000-0  22190-3 0  9999,2 54185  53.2170 315.0289 0001275  89.8703 270.2435 15.08848123 18014,6917.856,95.437,540.603,538.839,0.0
54185.0,STARLINK-5235,PAYLOAD,2023-02-22 03:07:42,15.0885456,0.0001273,53.2171,313.8396,89.9051,270.2087,0.0003569,5.399e-05,0.0,0 STARLINK-5235,1 54185U 22141AE  23053.13034869  .00005399  00000-0  35690-3 0  9992,2 54185  53.2171 313.8396 0001273  89.9051 270.2087 15.08854560 18054,6917.836,95.437,540.582,538.82,0.0
54185.0,STARLINK-5235,PAYLOAD,2023-02-22 22:12:20,15.08836051,0.0001302,53.2175,310.2711,91.8902,268.224,0.00011563,1.553e-05,0.0,0 STARLINK-5235,1 54185U 22141AE  23053.92523969  .00001553  00000-0  11563-3 0  9994,2 54185  53.2175 310.2711 0001302  91.8902 268.2240 15.08836051 18176,6917.892,95.438,540.658,538.857,0.0
54185.0,STARLINK-5235,PAYLOAD,2023-02-23 02:58:30,15.0883341,0.000137,53.2168,309.3771,90.1883,269.9266,0.00027904,4.155e-05,0.0,0 STARLINK-5235,1 54185U 22141AE  23054.12396238  .00004155  00000-0  27904-3 0  9991,2 54185  53.2168 309.3771 0001370  90.1883 269.9266 15.08833410 18439,6917.901,95.438,540.713,538.818,0.0
54185.0,STARLINK-5235,PAYLOAD,2023-02-23 04:33:53,15.08838999,0.0001383,53.2168,309.0808,90.4062,269.7088,0.00045324,6.933e-05,0.0,0 STARLINK-5235,1 54185U 22141AE  23054.19020207  .00006933  00000-0  45324-3 0  9990,2 54185  53.2168 309.0808 0001383  90.4062 269.7088 15.08838999 18216,6917.883,95.438,540.705,538.792,0.0
54185.0,STARLINK-5235,PAYLOAD,2023-02-23 20:27:44,15.08859097,0.0001384,53.2163,306.1077,89.8166,270.2985,0.00092718,0.00014507,0.0,0 STARLINK-5235,1 54185U 22141AE  23054.85259805  .00014507  00000-0  92718-3 0  9996,2 54185  53.2163 306.1077 0001384  89.8166 270.2985 15.08859097 18546,6917.822,95.436,540.644,538.73,0.0
54185.0,STARLINK-5235,PAYLOAD,2023-02-23 23:38:30,15.08871676,0.0001447,53.2166,305.5127,88.9978,271.118,0.0012909,0.00020334,0.0,0 STARLINK-5235,1 54185U 22141AE  23054.98507471  .00020334  00000-0  12909-2 0  9993,2 54185  53.2166 305.5127 0001447  88.9978 271.1180 15.08871676 18565,6917.784,95.436,540.65,538.648,0.0
54185.0,STARLINK-5235,PAYLOAD,2023-02-24 20:18:31,15.0885136,0.0001355,53.2162,301.6469,101.0225,259.0919,0.00029624,4.431e-05,0.0,0 STARLINK-5235,1 54185U 22141AE  23055.84619366  .00004431  00000-0  29624-3 0  9999,2 54185  53.2162 301.6469 0001355 101.0225 259.0919 15.08851360 18469,6917.846,95.437,540.648,538.773,0.0
54185.0,STARLINK-5235,PAYLOAD,2023-02-25 02:40:02,15.08883223,0.0001423,53.2159,300.4578,93.9986,266.1168,0.0034262,0.00054728,0.0,0 STARLINK-5235,1 54185U 22141AE  23056.11114281  .00054728  00000-0  34262-2 0  9993,2 54185  53.2159 300.4578 0001423  93.9986 266.1168 15.08883223 18730,6917.748,95.435,540.598,538.629,0.0
54185.0,STARLINK-5235,PAYLOAD,2023-02-25 20:09:17,15.08864574,0.0001397,53.2159,297.1871,121.3977,238.7152,0.0011733,0.00018447,0.0,0 STARLINK-5235,1 54185U 22141AE  23056.83978501  .00018447  00000-0  11733-2 0  9991,2 54185  53.2159 297.1871 0001397 121.3977 238.7152 15.08864574 18617,6917.805,95.436,540.637,538.704,0.0
54185.0,STARLINK-5235,PAYLOAD,2023-02-26 04:06:13,15.08826653,0.0001269,53.2147,295.6976,107.0624,253.0507,-0.00027842,-4.715e-05,0.0,0 STARLINK-5235,1 54185U 22141AE  23057.17098935 -.00004715  00000-0 -27842-3 0  9997,2 54185  53.2147 295.6976 0001269 107.0624 253.0507 15.08826653 18891,6917.921,95.438,540.664,538.908,0.0
54185.0,STARLINK-5235,PAYLOAD,2023-02-26 23:10:51,15.08857535,0.0001346,53.2157,292.1312,108.2562,251.8577,0.0017689,0.0002799,0.0,0 STARLINK-5235,1 54185U 22141AE  23057.96587466  .00027990  00000-0  17689-2 0  9991,2 54185  53.2157 292.1312 0001346 108.2562 251.8577 15.08857535 19019,6917.827,95.436,540.623,538.761,0.0
54185.0,STARLINK-5235,PAYLOAD,2023-02-27 18:15:28,15.08902542,5.2e-05,53.2158,288.5605,53.3831,306.7209,0.0048092,0.00077222,0.0,0 STARLINK-5235,1 54185U 22141AE  23058.76075160  .00077222  00000-0  48092-2 0  9998,2 54185  53.2158 288.5605 0000520  53.3831 306.7209 15.08902542 19130,6917.689,95.434,539.914,539.195,0.0
54185.0,STARLINK-5235,PAYLOAD,2023-02-27 21:26:15,15.08874152,0.0001472,53.2154,287.9674,82.0976,278.0183,0.0020616,0.00032706,0.0,0 STARLINK-5235,1 54185U 22141AE  23058.89323248  .00032706  00000-0  20616-2 0  9995,2 54185  53.2154 287.9674 0001472  82.0976 278.0183 15.08874152 18924,6917.776,95.435,540.659,538.623,0.0
54185.0,STARLINK-5235,PAYLOAD,2023-02-28 00:37:01,15.08879181,0.0001415,53.2155,287.373,82.3846,277.7307,0.0018612,0.00029489,0.0,0 STARLINK-5235,1 54185U 22141AE  23059.02570915  .00029489  00000-0  18612-2 0  9993,2 54185  53.2155 287.3730 0001415  82.3846 277.7307 15.08879181 19177,6917.761,95.435,540.604,538.647,0.0
54185.0,STARLINK-5235,PAYLOAD,2023-02-28 21:17:03,15.088209,9.38e-05,53.2162,283.508,64.1231,295.9858,0.00095332,0.00014909,0.0,0 STARLINK-5235,1 54185U 22141AE  23059.88684451  .00014909  00000-0  95332-3 0  9994,2 54185  53.2162 283.5080 0000938  64.1231 295.9858 15.08820900 19073,6917.939,95.439,540.453,539.155,0.0
54185.0,STARLINK-5235,PAYLOAD,2023-03-01 02:03:12,15.08827743,9.93e-05,53.2158,282.6142,71.7016,288.4084,0.00039436,5.992e-05,0.0,0 STARLINK-5235,1 54185U 22141AE  23060.08556541  .00005992  00000-0  39436-3 0  9991,2 54185  53.2158 282.6142 0000993  71.7016 288.4084 15.08827743 19332,6917.918,95.438,540.47,539.096,0.0
54185.0,STARLINK-5235,PAYLOAD,2023-03-01 21:07:50,15.08849051,9.27e-05,53.2153,279.046,62.9542,297.1544,0.00088319,0.00013799,0.0,0 STARLINK-5235,1 54185U 22141AE  23060.88044626  .00013799  00000-0  88319-3 0  9993,2 54185  53.2153 279.0460 0000927  62.9542 297.1544 15.08849051 19225,6917.853,95.437,540.359,539.076,0.0
54185.0,STARLINK-5235,PAYLOAD,2023-03-02 00:18:36,15.08855666,9.32e-05,53.2154,278.4513,60.5951,299.5134,0.00098129,0.0001537,0.0,0 STARLINK-5235,1 54185U 22141AE  23061.01292457  .00015370  00000-0  98129-3 0  9993,2 54185  53.2154 278.4513 0000932  60.5951 299.5134 15.08855666 19479,6917.833,95.437,540.342,539.053,0.0
54185.0,STARLINK-5235,PAYLOAD,2023-03-02 19:23:14,15.08842728,0.0001612,53.2164,274.8806,41.5696,318.5418,0.00068967,0.00010706,0.0,0 STARLINK-5235,1 54185U 22141AE  23061.80780675  .00010706  00000-0  68967-3 0  9999,2 54185  53.2164 274.8806 0001612  41.5696 318.5418 15.08842728 19591,6917.872,95.437,540.852,538.622,0.0
54185.0,STARLINK-5235,PAYLOAD,2023-03-02 22:34:00,15.08852138,0.0001009,53.2162,274.2865,60.5705,299.5388,0.00041478,6.322e-05,0.0,0 STARLINK-5235,1 54185U 22141AE  23061.94028375  .00006322  00000-0  41478-3 0  9993,2 54185  53.2162 274.2865 0001009  60.5705 299.5388 15.08852138 19387,6917.843,95.437,540.406,539.01,0.0
54185.0,STARLINK-5235,PAYLOAD,2023-03-03 14:27:51,15.08846001,9.34e-05,53.217,271.3124,90.6995,269.4104,0.00015516,2.183e-05,0.0,0 STARLINK-5235,1 54185U 22141AE  23062.60268147  .00002183  00000-0  15516-3 0  9995,2 54185  53.2170 271.3124 0000934  90.6995 269.4104 15.08846001 19714,6917.862,95.437,540.373,539.081,0.0
